{
  "norad_id": 58412,
  "name": "STARLINK-30924",
  "history": [
    {
      "epoch": "2026-03-28T06:19:07.073184Z",
      "apogee_km": 470.3974204175929,
      "perigee_km": 469.50716880929303,
      "latitude_deg": -3.1171894334192894e-05,
      "longitude_deg": -121.4882374919194,
      "height_km": 469.4018922011851,
      "semi_major_axis_km": 6848.089294613443,
      "eccentricity": 6.5e-05,
      "inclination_deg": 43.0011,
      "raan_deg": 158.9775,
      "arg_perigee_deg": 317.0838,
      "mean_anomaly_deg": 42.9964,
      "mean_motion_rev_day": 15.31964283
    }
  ]
}